ORBCOMM FM37            
1 33064U 08031E   24159.41188125  .00002990  00000+0  45262-3 0  9990
2 33064  48.4405 321.1857 0006436 215.7312 162.2886 14.76616967858928
ORBCOMM FM40            
1 33065U 08031F   24159.38285911  .00003773  00000+0  54584-3 0  9995
2 33065  48.4426 310.4231 0007859 223.9666 154.0290 14.77978547859084
VESSELSAT 1             
1 37840U 11058C   24159.36141610  .00000426  00000+0  88013-4 0  9995
2 37840  19.9603 201.6381 0013778  24.7232 335.3831 14.11163392653527
ORBCOMM FM109           
1 40086U 14040A   24158.25732994  .00001467  00000+0  36242-3 0  9995
2 40086  47.0049 349.8777 0001468  12.6646 347.4276 14.56708360526223
ORBCOMM FM107           
1 40087U 14040B   24158.90866848  .00001444  00000+0  35715-3 0  9993
2 40087  47.0067 347.7770 0001332 328.3238  31.7567 14.56720738526430
ORBCOMM FM106           
1 40088U 14040C   24158.97800546  .00001464  00000+0  28985-3 0  9997
2 40088  47.0596 198.5485 0016815 126.2357 234.0089 14.67156541528540
ORBCOMM FM111           
1 40089U 14040D   24158.53067469  .00004074  00000+0  52924-3 0  9999
2 40089  47.0036  98.4957 0032884 199.2422 160.7233 14.81982047534423
ORBCOMM FM104           
1 40090U 14040E   24158.97646303  .00001078  00000+0  28487-3 0  9997
2 40090  47.0067  16.6777 0017455 290.3471  69.5537 14.55208233526046
